LYNK TOWER 4            
1 55034U 23001AB  26068.67743801  .00009160  00000+0  30014-3 0  9997
2 55034  97.3324 128.5940 0010321 112.3386 247.8950 15.31819885176588
STARLINK-32077          
1 60344U 24136R   26068.41154516  .00000122  00000+0  16244-4 0  9997
2 60344  53.1613  76.8348 0001422  76.8529 283.2631 15.30189785 89627
